{"type": "FeatureCollection", "features": [ {"type": "Feature", "properties": {"norad_id": 35744, "name": "IRIDIUM 33 DEB", "group": "iridium-33-debris", "lat": -34.543482595143544, "lon": 150.38258813034898, "alt_km": 650.8482260611372, "timestamp": "2025-12-07T09:35:10.174923+00:00", "meta": {"OBJECT_NAME": "IRIDIUM 33 DEB", "OBJECT_ID": "1997-051RX", "EPOCH": "2025-12-06T06:29:21.230304", "MEAN_MOTION": 14.70859425, "ECCENTRICITY": 0.00195136, "INCLINATION": 86.3283, "RA_OF_ASC_NODE": 328.359, "ARG_OF_PERICENTER": 216.4074, "MEAN_ANOMALY": 143.5816, "EPHEMERIS_TYPE": 0, "CLASSIFICATION_TYPE": "U", "NORAD_CAT_ID": 35744, "ELEMENT_SET_NO": 999, "REV_AT_EPOCH": 87236, "BSTAR": 0.0021482405, "MEAN_MOTION_DOT": 0.00013207, "MEAN_MOTION_DDOT": 0}, "tle": {"line1": "1 35744U 97051RX  25340.27038461  .00013207  00000+0  21482-2 0  9991", "line2": "2 35744  86.3283 328.3590 0019513 216.4074 143.5816 14.70859425872367"}}, "geometry": {"type": "Point", "coordinates": [150.38258813034898, -34.543482595143544]}}, {"type": "Feature", "properties": {"norad_id": 35797, "name": "IRIDIUM 33 DEB", "group": "iridium-33-debris", "lat": 76.98558800716717, "lon": -11.47600851189854, "alt_km": 613.9653941335564, "timestamp": "2025-12-07T09:35:10.174933+00:00", "meta": {"OBJECT_NAME": "IRIDIUM 33 DEB", "OBJECT_ID": "1997-051SF", "EPOCH": "2025-12-06T07:19:06.224160", "MEAN_MOTION": 14.82493357, "ECCENTRICITY": 0.00123708, "INCLINATION": 86.3354, "RA_OF_ASC_NODE": 332.9283, "ARG_OF_PERICENTER": 170.2941, "MEAN_ANOMALY": 189.8523, "EPHEMERIS_TYPE": 0, "CLASSIFICATION_TYPE": "U", "NORAD_CAT_ID": 35797, "ELEMENT_SET_NO": 999, "REV_AT_EPOCH": 87245, "BSTAR": 0.0032096309, "MEAN_MOTION_DOT": 0.00025886, "MEAN_MOTION_DDOT": 0}, "tle": {"line1": "1 35797U 97051SF  25340.30493315  .00025886  00000+0  32096-2 0  9995", "line2": "2 35797  86.3354 332.9283 0012370 170.2941 189.8523 14.82493357872457"}}, "geometry": {"type": "Point", "coordinates": [-11.47600851189854, 76.98558800716717]}}, {"type": "Feature", "properties": {"norad_id": 35806, "name": "IRIDIUM 33 DEB", "group": "iridium-33-debris", "lat": 29.62314308759011, "lon": -159.10298496492385, "alt_km": 694.7490323238244, "timestamp": "2025-12-07T09:35:10.174943+00:00", "meta": {"OBJECT_NAME": "IRIDIUM 33 DEB", "OBJECT_ID": "1997-051SQ", "EPOCH": "2025-12-06T09:49:43.789440", "MEAN_MOTION": 14.5725267, "ECCENTRICITY": 0.0016158, "INCLINATION": 86.344, "RA_OF_ASC_NODE": 23.4162, "ARG_OF_PERICENTER": 94.3917, "MEAN_ANOMALY": 265.9138, "EPHEMERIS_TYPE": 0, "CLASSIFICATION_TYPE": "U", "NORAD_CAT_ID": 35806, "ELEMENT_SET_NO": 999, "REV_AT_EPOCH": 86232, "BSTAR": 0.0020153904, "MEAN_MOTION_DOT": 9.149e-05, "MEAN_MOTION_DDOT": 0}, "tle": {"line1": "1 35806U 97051SQ  25340.40953460  .00009149  00000+0  20154-2 0  9995", "line2": "2 35806  86.3440  23.4162 0016158  94.3917 265.9138 14.57252670862325"}}, "geometry": {"type": "Point", "coordinates": [-159.10298496492385, 29.62314308759011]}}, {"type": "Feature", "properties": {"norad_id": 35809, "name": "IRIDIUM 33 DEB", "group": "iridium-33-debris", "lat": 16.84652725441265, "lon": 156.66552465600742, "alt_km": 645.7645586725685, "timestamp": "2025-12-07T09:35:10.174953+00:00", "meta": {"OBJECT_NAME": "IRIDIUM 33 DEB", "OBJECT_ID": "1997-051ST", "EPOCH": "2025-12-06T06:48:24.450912", "MEAN_MOTION": 14.75488502, "ECCENTRICITY": 0.00096585, "INCLINATION": 86.3276, "RA_OF_ASC_NODE": 338.2877, "ARG_OF_PERICENTER": 270.8385, "MEAN_ANOMALY": 89.1727, "EPHEMERIS_TYPE": 0, "CLASSIFICATION_TYPE": "U", "NORAD_CAT_ID": 35809, "ELEMENT_SET_NO": 999, "REV_AT_EPOCH": 86712, "BSTAR": 0.0029776157, "MEAN_MOTION_DOT": 0.00020329, "MEAN_MOTION_DDOT": 0}, "tle": {"line1": "1 35809U 97051ST  25340.28361633  .00020329  00000+0  29776-2 0  9991", "line2": "2 35809  86.3276 338.2877 0009658 270.8385  89.1727 14.75488502867120"}}, "geometry": {"type": "Point", "coordinates": [156.66552465600742, 16.84652725441265]}}, {"type": "Feature", "properties": {"norad_id": 35846, "name": "IRIDIUM 33 DEB", "group": "iridium-33-debris", "lat": -29.010869547109568, "lon": -116.86655987242723, "alt_km": 743.0079140222533, "timestamp": "2025-12-07T09:35:10.174963+00:00", "meta": {"OBJECT_NAME": "IRIDIUM 33 DEB", "OBJECT_ID": "1997-051SW", "EPOCH": "2025-11-15T14:04:07.017312", "MEAN_MOTION": 14.42992821, "ECCENTRICITY": 0.00163082, "INCLINATION": 86.3745, "RA_OF_ASC_NODE": 70.4244, "ARG_OF_PERICENTER": 263.1259, "MEAN_ANOMALY": 96.8086, "EPHEMERIS_TYPE": 0, "CLASSIFICATION_TYPE": "U", "NORAD_CAT_ID": 35846, "ELEMENT_SET_NO": 999, "REV_AT_EPOCH": 70937, "BSTAR": 0.0011049939, "MEAN_MOTION_DOT": 3.722e-05, "MEAN_MOTION_DDOT": 0}, "tle": {"line1": "1 35846U 97051SW  25319.58619233  .00003722  00000+0  11050-2 0  9997", "line2": "2 35846  86.3745  70.4244 0016308 263.1259  96.8086 14.42992821709373"}}, "geometry": {"type": "Point", "coordinates": [-116.86655987242723, -29.010869547109568]}}, {"type": "Feature", "properties": {"norad_id": 35848, "name": "IRIDIUM 33 DEB", "group": "iridium-33-debris", "lat": 59.04508380629208, "lon": 24.56912717981841, "alt_km": 633.2246599815535, "timestamp": "2025-12-07T09:35:10.174973+00:00", "meta": {"OBJECT_NAME": "IRIDIUM 33 DEB", "OBJECT_ID": "1997-051SY", "EPOCH": "2025-12-06T20:19:25.547808", "MEAN_MOTION": 14.78448907, "ECCENTRICITY": 0.00071808, "INCLINATION": 86.3929, "RA_OF_ASC_NODE": 18.7802, "ARG_OF_PERICENTER": 219.4527, "MEAN_ANOMALY": 140.6171, "EPHEMERIS_TYPE": 0, "CLASSIFICATION_TYPE": "U", "NORAD_CAT_ID": 35848, "ELEMENT_SET_NO": 999, "REV_AT_EPOCH": 66603, "BSTAR": 0.0027695976, "MEAN_MOTION_DOT": 0.0002026, "MEAN_MOTION_DDOT": 0}, "tle": {"line1": "1 35848U 97051SY  25340.84682347  .00020260  00000+0  27696-2 0  9997", "line2": "2 35848  86.3929  18.7802 0007180 219.4527 140.6171 14.78448907666032"}}, "geometry": {"type": "Point", "coordinates": [24.56912717981841, 59.04508380629208]}}, {"type": "Feature", "properties": {"norad_id": 35850, "name": "IRIDIUM 33 DEB", "group": "iridium-33-debris", "lat": 20.903499095229446, "lon": -11.927352040871039, "alt_km": 639.5042489308462, "timestamp": "2025-12-07T09:35:10.174984+00:00", "meta": {"OBJECT_NAME": "IRIDIUM 33 DEB", "OBJECT_ID": "1997-051TA", "EPOCH": "2025-12-06T07:30:15.621984", "MEAN_MOTION": 14.78601393, "ECCENTRICITY": 0.00083892, "INCLINATION": 86.3487, "RA_OF_ASC_NODE": 347.1693, "ARG_OF_PERICENTER": 210.267, "MEAN_ANOMALY": 149.8067, "EPHEMERIS_TYPE": 0, "CLASSIFICATION_TYPE": "U", "NORAD_CAT_ID": 35850, "ELEMENT_SET_NO": 999, "REV_AT_EPOCH": 71262, "BSTAR": 0.0028291764, "MEAN_MOTION_DOT": 0.00020775, "MEAN_MOTION_DDOT": 0}, "tle": {"line1": "1 35850U 97051TA  25340.31268081  .00020775  00000+0  28292-2 0  9991", "line2": "2 35850  86.3487 347.1693 0008389 210.2670 149.8067 14.78601393712623"}}, "geometry": {"type": "Point", "coordinates": [-11.927352040871039, 20.903499095229446]}}, {"type": "Feature", "properties": {"norad_id": 35915, "name": "IRIDIUM 33 DEB", "group": "iridium-33-debris", "lat": -75.11707171257804, "lon": -28.523968788998655, "alt_km": 633.3659113687218, "timestamp": "2025-12-07T09:35:10.174994+00:00", "meta": {"OBJECT_NAME": "IRIDIUM 33 DEB", "OBJECT_ID": "1997-051TY", "EPOCH": "2025-12-06T17:42:21.727008", "MEAN_MOTION": 14.80501184, "ECCENTRICITY": 0.00101474, "INCLINATION": 86.3439, "RA_OF_ASC_NODE": 345.6999, "ARG_OF_PERICENTER": 210.5385, "MEAN_ANOMALY": 149.5247, "EPHEMERIS_TYPE": 0, "CLASSIFICATION_TYPE": "U", "NORAD_CAT_ID": 35915, "ELEMENT_SET_NO": 999, "REV_AT_EPOCH": 7997, "BSTAR": 0.0029794064, "MEAN_MOTION_DOT": 0.00022896, "MEAN_MOTION_DDOT": 0}, "tle": {"line1": "1 35915U 97051TY  25340.73775147  .00022896  00000+0  29794-2 0  9999", "line2": "2 35915  86.3439 345.6999 0010147 210.5385 149.5247 14.80501184 79976"}}, "geometry": {"type": "Point", "coordinates": [-28.523968788998655, -75.11707171257804]}}, {"type": "Feature", "properties": {"norad_id": 35918, "name": "IRIDIUM 33 DEB", "group": "iridium-33-debris", "lat": -75.647276147501, "lon": 63.86383793034978, "alt_km": 731.6413599760972, "timestamp": "2025-12-07T09:35:10.175004+00:00", "meta": {"OBJECT_NAME": "IRIDIUM 33 DEB", "OBJECT_ID": "1997-051UB", "EPOCH": "2025-11-30T01:41:55.281408", "MEAN_MOTION": 14.51050885, "ECCENTRICITY": 0.00264066, "INCLINATION": 86.4001, "RA_OF_ASC_NODE": 81.2516, "ARG_OF_PERICENTER": 211.3482, "MEAN_ANOMALY": 332.4953, "EPHEMERIS_TYPE": 0, "CLASSIFICATION_TYPE": "U", "NORAD_CAT_ID": 35918, "ELEMENT_SET_NO": 999, "REV_AT_EPOCH": 85023, "BSTAR": 0.0014523463, "MEAN_MOTION_DOT": 5.795e-05, "MEAN_MOTION_DDOT": 0}, "tle": {"line1": "1 35918U 97051UB  25334.07077872  .00005795  00000+0  14523-2 0  9995", "line2": "2 35918  86.4001  81.2516 0026406 211.3482 332.4953 14.51050885850233"}}, "geometry": {"type": "Point", "coordinates": [63.86383793034978, -75.647276147501]}}, {"type": "Feature", "properties": {"norad_id": 35929, "name": "IRIDIUM 33 DEB", "group": "iridium-33-debris", "lat": 43.608639879548264, "lon": 131.66798023837413, "alt_km": 557.924658547925, "timestamp": "2025-12-07T09:35:10.175014+00:00", "meta": {"OBJECT_NAME": "IRIDIUM 33 DEB", "OBJECT_ID": "1997-051UN", "EPOCH": "2025-12-02T05:49:26.497920", "MEAN_MOTION": 15.01302222, "ECCENTRICITY": 0.0019551, "INCLINATION": 86.3366, "RA_OF_ASC_NODE": 317.6054, "ARG_OF_PERICENTER": 65.7136, "MEAN_ANOMALY": 294.6136, "EPHEMERIS_TYPE": 0, "CLASSIFICATION_TYPE": "U", "NORAD_CAT_ID": 35929, "ELEMENT_SET_NO": 999, "REV_AT_EPOCH": 87622, "BSTAR": 0.0029859, "MEAN_MOTION_DOT": 0.00038744, "MEAN_MOTION_DDOT": 0}, "tle": {"line1": "1 35929U 97051UN  25336.24266780  .00038744  00000+0  29859-2 0  9994", "line2": "2 35929  86.3366 317.6054 0019551  65.7136 294.6136 15.01302222876221"}}, "geometry": {"type": "Point", "coordinates": [131.66798023837413, 43.608639879548264]}}]}